[{"OBJECT_NAME":"GHGSAT-C13","OBJECT_ID":"2025-135W","EPOCH":"2026-03-09T21:19:51.572640","MEAN_MOTION":15.20248668,"ECCENTRICITY":0.00027022,"INCLINATION":97.4646,"RA_OF_ASC_NODE":185.1231,"ARG_OF_PERICENTER":97.1001,"MEAN_ANOMALY":263.0541,"EPHEMERIS_TYPE":0,"CLASSIFICATION_TYPE":"U","NORAD_CAT_ID":64548,"ELEMENT_SET_NO":999,"REV_AT_EPOCH":3976,"BSTAR":0.00021160273,"MEAN_MOTION_DOT":4.522e-5,"MEAN_MOTION_DDOT":0},{"OBJECT_NAME":"OBJECT B","OBJECT_ID":"2025-197B","EPOCH":"2026-03-09T22:54:10.410624","MEAN_MOTION":15.22275825,"ECCENTRICITY":0.00134905,"INCLINATION":97.4108,"RA_OF_ASC_NODE":256.8193,"ARG_OF_PERICENTER":3.3415,"MEAN_ANOMALY":356.7909,"EPHEMERIS_TYPE":0,"CLASSIFICATION_TYPE":"U","NORAD_CAT_ID":65489,"ELEMENT_SET_NO":999,"REV_AT_EPOCH":2819,"BSTAR":0.0002890926,"MEAN_MOTION_DOT":6.601e-5,"MEAN_MOTION_DDOT":0}]
